STARLINK-2367_new
1 17907C 21021AZ  21326.06355531  .00003539  00000-0  23705-3 0  3269
2 17907  53.0551 123.4569 0001503  85.4955 304.0776 15.06408627    10
STARLINK-2367_old
1 27907C 21021AZ  21325.06841476  .00002939  00000-0  19691-3 0  3257
2 27907  53.0544 127.9241 0001530  84.9651 304.9134 15.06402031    15
